{
  "norad_id": 42920,
  "name": "FORMOSAT-5",
  "history": [
    {
      "epoch": "2026-03-28T21:57:17.271072Z",
      "apogee_km": 731.1697433628469,
      "perigee_km": 715.521058773501,
      "latitude_deg": -1.8157076678282717e-05,
      "longitude_deg": 9.352952384248304,
      "height_km": 719.0319334520323,
      "semi_major_axis_km": 7101.482401068173,
      "eccentricity": 0.00110179,
      "inclination_deg": 98.2284,
      "raan_deg": 165.0033,
      "arg_perigee_deg": 338.6687,
      "mean_anomaly_deg": 21.4047,
      "mean_motion_rev_day": 14.50705439
    },
    {
      "epoch": "2026-03-29T04:34:34.136832Z",
      "apogee_km": 731.1564579065171,
      "perigee_km": 715.5317791495318,
      "latitude_deg": -7.008252658663973e-05,
      "longitude_deg": -89.969443331273,
      "height_km": 719.0870691301913,
      "semi_major_axis_km": 7101.481118528024,
      "eccentricity": 0.0011001,
      "inclination_deg": 98.2283,
      "raan_deg": 165.2731,
      "arg_perigee_deg": 337.7775,
      "mean_anomaly_deg": 22.2941,
      "mean_motion_rev_day": 14.50705832
    },
    {
      "epoch": "2026-03-30T03:45:03.170016Z",
      "apogee_km": 731.1122449081595,
      "perigee_km": 715.5727874308777,
      "latitude_deg": -6.5576846669211e-05,
      "longitude_deg": -77.59796738877786,
      "height_km": 719.2938321729654,
      "semi_major_axis_km": 7101.479516169518,
      "eccentricity": 0.0010941,
      "inclination_deg": 98.2282,
      "raan_deg": 166.2173,
      "arg_perigee_deg": 334.6948,
      "mean_anomaly_deg": 25.3709,
      "mean_motion_rev_day": 14.50706323
    },
    {
      "epoch": "2026-03-30T05:24:22.390560Z",
      "apogee_km": 731.1086573712973,
      "perigee_km": 715.576159579492,
      "latitude_deg": 4.1654999680995344e-05,
      "longitude_deg": -102.42865069082832,
      "height_km": 719.3096171392713,
      "semi_major_axis_km": 7101.479408475394,
      "eccentricity": 0.00109361,
      "inclination_deg": 98.2282,
      "raan_deg": 166.2847,
      "arg_perigee_deg": 334.4761,
      "mean_anomaly_deg": 25.5893,
      "mean_motion_rev_day": 14.50706356
    },
    {
      "epoch": "2026-03-30T13:40:58.462176Z",
      "apogee_km": 731.0919210941256,
      "perigee_km": 715.5913816122438,
      "latitude_deg": -8.063134475317134e-05,
      "longitude_deg": 133.41845745725243,
      "height_km": 719.3899337457555,
      "semi_major_axis_km": 7101.478651353184,
      "eccentricity": 0.00109136,
      "inclination_deg": 98.2282,
      "raan_deg": 166.622,
      "arg_perigee_deg": 333.3582,
      "mean_anomaly_deg": 26.705,
      "mean_motion_rev_day": 14.50706588
    },
    {
      "epoch": "2026-03-30T21:57:34.534656Z",
      "apogee_km": 731.0763889756645,
      "perigee_km": 715.6059608012338,
      "latitude_deg": 6.075650132373808e-05,
      "longitude_deg": 9.265424071615563,
      "height_km": 719.4716469273314,
      "semi_major_axis_km": 7101.478174888449,
      "eccentricity": 0.00108924,
      "inclination_deg": 98.2281,
      "raan_deg": 166.9592,
      "arg_perigee_deg": 332.2467,
      "mean_anomaly_deg": 27.8146,
      "mean_motion_rev_day": 14.50706734
    },
    {
      "epoch": "2026-03-31T19:28:44.298912Z",
      "apogee_km": 731.0371582282032,
      "perigee_km": 715.6411579175001,
      "latitude_deg": 7.265826548829672e-05,
      "longitude_deg": 46.46776970712571,
      "height_km": 719.6971479252851,
      "semi_major_axis_km": 7101.476158072851,
      "eccentricity": 0.001084,
      "inclination_deg": 98.228,
      "raan_deg": 167.836,
      "arg_perigee_deg": 329.2867,
      "mean_anomaly_deg": 30.7693,
      "mean_motion_rev_day": 14.50707352
    }
  ]
}